NORAD_CAT_ID,OBJECT_NAME,OBJECT_TYPE,EPOCH,MEAN_MOTION,ECCENTRICITY,INCLINATION,RA_OF_ASC_NODE,ARG_OF_PERICENTER,MEAN_ANOMALY,BSTAR,MEAN_MOTION_DOT,MEAN_MOTION_DDOT,TLE_LINE0,TLE_LINE1,TLE_LINE2,SEMIMAJOR_AXIS,PERIOD,APOGEE,PERIGEE,DECAYED
54056.0,STARLINK-5226,PAYLOAD,2023-04-01 19:21:09,15.08840317,0.0001511,53.2177,120.5764,77.1488,282.9673,0.00018953,2.73e-05,0.0,0 STARLINK-5226,1 54056U 22136F   23091.80636067  .00002730  00000-0  18953-3 0  9996,2 54056  53.2177 120.5764 0001511  77.1488 282.9673 15.08840317 24870,6917.879,95.438,540.79,538.699,0.0
54056.0,STARLINK-5226,PAYLOAD,2023-04-02 08:04:14,15.08849002,0.0001494,53.217,118.1965,78.5135,281.6025,0.00031029,4.655e-05,0.0,0 STARLINK-5226,1 54056U 22136F   23092.33627773  .00004655  00000-0  31029-3 0  9996,2 54056  53.2170 118.1965 0001494  78.5135 281.6025 15.08849002 25433,6917.853,95.437,540.751,538.684,0.0
54056.0,STARLINK-5226,PAYLOAD,2023-04-02 11:15:00,15.08851368,0.000151,53.2167,117.6009,77.8259,282.2902,0.00033629,5.07e-05,0.0,0 STARLINK-5226,1 54056U 22136F   23092.46875643  .00005070  00000-0  33629-3 0  9991,2 54056  53.2167 117.6009 0001510  77.8259 282.2902 15.08851368 24977,6917.846,95.437,540.755,538.666,0.0
54056.0,STARLINK-5226,PAYLOAD,2023-04-02 19:11:56,15.08845169,0.0001457,53.2159,116.1149,74.3803,285.735,0.00028018,4.175e-05,0.0,0 STARLINK-5226,1 54056U 22136F   23092.79995881  .00004175  00000-0  28018-3 0  9995,2 54056  53.2159 116.1149 0001457  74.3803 285.7350 15.08845169 25501,6917.865,95.437,540.738,538.722,0.0
54056.0,STARLINK-5226,PAYLOAD,2023-04-03 04:44:15,15.08839006,0.0001404,53.2168,114.3308,88.0267,272.0886,0.00010667,1.41e-05,0.0,0 STARLINK-5226,1 54056U 22136F   23093.19740174  .00001410  00000-0  10667-3 0  9993,2 54056  53.2168 114.3308 0001404  88.0267 272.0886 15.08839006 25568,6917.883,95.438,540.72,538.777,0.0
54056.0,STARLINK-5226,PAYLOAD,2023-04-03 07:55:01,15.08840437,0.000136,53.2168,113.7352,93.1681,266.9466,0.00012424,1.69e-05,0.0,0 STARLINK-5226,1 54056U 22136F   23093.32988112  .00001690  00000-0  12424-3 0  9997,2 54056  53.2168 113.7352 0001360  93.1681 266.9466 15.08840437 25104,6917.879,95.438,540.685,538.803,0.0
54056.0,STARLINK-5226,PAYLOAD,2023-04-04 06:10:25,15.08854124,0.0001386,53.2168,109.5715,103.0213,257.0934,0.00058595,9.053e-05,0.0,0 STARLINK-5226,1 54056U 22136F   23094.25723707  .00009053  00000-0  58595-3 0  9997,2 54056  53.2168 109.5715 0001386 103.0213 257.0934 15.08854124 25727,6917.837,95.437,540.661,538.743,0.0
54056.0,STARLINK-5226,PAYLOAD,2023-04-04 07:45:48,15.08856563,0.0001397,53.2169,109.2738,106.1306,253.984,0.00065719,0.00010191,0.0,0 STARLINK-5226,1 54056U 22136F   23094.32347613  .00010191  00000-0  65719-3 0  9994,2 54056  53.2169 109.2738 0001397 106.1306 253.9840 15.08856563 25257,6917.83,95.437,540.661,538.728,0.0
54056.0,STARLINK-5226,PAYLOAD,2023-04-05 06:01:12,15.08840671,0.0001362,53.2169,105.1094,96.5813,263.5334,8.0642e-05,9.96e-06,0.0,0 STARLINK-5226,1 54056U 22136F   23095.25083951  .00000996  00000-0  80642-4 0  9994,2 54056  53.2169 105.1094 0001362  96.5813 263.5334 15.08840671 25870,6917.878,95.438,540.686,538.801,0.0
54056.0,STARLINK-5226,PAYLOAD,2023-04-05 07:36:35,15.08838977,0.0001275,53.2167,104.811,98.2089,261.9048,4.7783e-05,4.73e-06,0.0,0 STARLINK-5226,1 54056U 22136F   23095.31708015  .00000473  00000-0  47783-4 0  9995,2 54056  53.2167 104.8110 0001275  98.2089 261.9048 15.08838977 25409,6917.884,95.438,540.631,538.866,0.0
54056.0,STARLINK-5226,PAYLOAD,2023-04-06 05:51:59,15.08845476,0.0001304,53.2168,100.6489,92.8962,267.2179,0.00013446,1.853e-05,0.0,0 STARLINK-5226,1 54056U 22136F   23096.24443811  .00001853  00000-0  13446-3 0  9999,2 54056  53.2168 100.6489 0001304  92.8962 267.2179 15.08845476 25547,6917.864,95.437,540.631,538.827,0.0
54056.0,STARLINK-5226,PAYLOAD,2023-04-06 16:59:41,15.08842958,0.0001333,53.2171,98.5685,87.5518,272.5627,0.00014478,2.017e-05,0.0,0 STARLINK-5226,1 54056U 22136F   23096.70811915  .00002017  00000-0  14478-3 0  9993,2 54056  53.2171  98.5685 0001333  87.5518 272.5627 15.08842958 26094,6917.871,95.437,540.658,538.814,0.0
54056.0,STARLINK-5226,PAYLOAD,2023-04-07 08:53:33,15.08841772,0.0001475,53.2184,95.5967,92.8713,267.2448,0.00016075,2.271e-05,0.0,0 STARLINK-5226,1 54056U 22136F   23097.37052127  .00002271  00000-0  16075-3 0  9996,2 54056  53.2184  95.5967 0001475  92.8713 267.2448 15.08841772 25714,6917.875,95.437,540.76,538.72,0.0
54056.0,STARLINK-5226,PAYLOAD,2023-04-08 03:58:10,15.08841743,0.0001552,53.2189,92.029,96.4039,263.7129,6.9177e-05,8.13e-06,0.0,0 STARLINK-5226,1 54056U 22136F   23098.16540140  .00000813  00000-0  69177-4 0  9993,2 54056  53.2189  92.0290 0001552  96.4039 263.7129 15.08841743 26319,6917.875,95.437,540.814,538.666,0.0
54056.0,STARLINK-5226,PAYLOAD,2023-04-08 07:08:56,15.08842546,0.0001524,53.2185,91.4339,95.1654,264.9512,7.2794e-05,8.71e-06,0.0,0 STARLINK-5226,1 54056U 22136F   23098.29788074  .00000871  00000-0  72794-4 0  9990,2 54056  53.2185  91.4339 0001524  95.1654 264.9512 15.08842546 25859,6917.873,95.437,540.792,538.683,0.0
54056.0,STARLINK-5226,PAYLOAD,2023-04-09 05:24:21,15.08840266,0.0001497,53.2193,87.2693,89.0908,271.0255,9.7331e-05,1.261e-05,0.0,0 STARLINK-5226,1 54056U 22136F   23099.22524483  .00001261  00000-0  97331-4 0  9994,2 54056  53.2193  87.2693 0001497  89.0908 271.0255 15.08840266 26476,6917.88,95.438,540.78,538.709,0.0
54056.0,STARLINK-5226,PAYLOAD,2023-04-09 08:35:07,15.08841135,0.0001349,53.2182,86.6736,95.7155,264.3991,6.4547e-05,7.4e-06,0.0,0 STARLINK-5226,1 54056U 22136F   23099.35772423  .00000740  00000-0  64547-4 0  9991,2 54056  53.2182  86.6736 0001349  95.7155 264.3991 15.08841135 26017,6917.877,95.437,540.675,538.809,0.0
54056.0,STARLINK-5226,PAYLOAD,2023-04-09 16:32:03,15.08838453,0.0001237,53.2179,85.1873,95.0502,265.0632,2.9235e-05,1.77e-06,0.0,0 STARLINK-5226,1 54056U 22136F   23099.68892686  .00000177  00000-0  29235-4 0  9990,2 54056  53.2179  85.1873 0001237  95.0502 265.0632 15.08838453 26068,6917.885,95.438,540.606,538.894,0.0
54056.0,STARLINK-5226,PAYLOAD,2023-04-10 08:25:54,15.08841692,0.0001233,53.2174,82.2138,96.1439,263.9694,6.5116e-05,7.49e-06,0.0,0 STARLINK-5226,1 54056U 22136F   23100.35132571  .00000749  00000-0  65116-4 0  9990,2 54056  53.2174  82.2138 0001233  96.1439 263.9694 15.08841692 26640,6917.875,95.437,540.593,538.887,0.0
54056.0,STARLINK-5226,PAYLOAD,2023-04-10 16:22:49,15.08844279,0.0001358,53.2184,80.7278,89.1461,270.9687,0.00012026,1.627e-05,0.0,0 STARLINK-5226,1 54056U 22136F   23100.68252312  .00001627  00000-0  12026-3 0  9999,2 54056  53.2184  80.7278 0001358  89.1461 270.9687 15.08844279 26211,6917.867,95.437,540.672,538.793,0.0
54056.0,STARLINK-5226,PAYLOAD,2023-04-11 05:05:52,15.08870078,9.82e-05,53.2186,78.3511,88.5546,271.5559,0.00038048,5.778e-05,0.0,0 STARLINK-5226,1 54056U 22136F   23101.21241562  .00005778  00000-0  38048-3 0  9997,2 54056  53.2186  78.3511 0000982  88.5546 271.5559 15.08870078 26294,6917.788,95.436,540.333,538.974,0.0
54056.0,STARLINK-5226,PAYLOAD,2023-04-12 04:56:42,15.08826974,9.07e-05,53.2178,73.8886,96.468,263.6415,-0.00018817,-3.28e-05,0.0,0 STARLINK-5226,1 54056U 22136F   23102.20604621 -.00003280  00000-0 -18817-3 0  9996,2 54056  53.2178  73.8886 0000907  96.4680 263.6415 15.08826974 26923,6917.92,95.438,540.413,539.158,0.0
54056.0,STARLINK-5226,PAYLOAD,2023-04-12 11:18:14,15.08833311,9.8e-05,53.2186,72.702,78.8207,281.2895,-0.00016476,-2.908e-05,0.0,0 STARLINK-5226,1 54056U 22136F   23102.47100457 -.00002908  00000-0 -16476-3 0  9998,2 54056  53.2186  72.7020 0000980  78.8207 281.2895 15.08833311 26482,6917.901,95.438,540.444,539.088,0.0
54056.0,STARLINK-5226,PAYLOAD,2023-04-13 07:58:15,15.0884601,7e-05,53.2183,68.8334,101.4732,258.6339,0.00020513,2.979e-05,0.0,0 STARLINK-5226,1 54056U 22136F   23103.33212075  .00002979  00000-0  20513-3 0  9997,2 54056  53.2183  68.8334 0000700 101.4732 258.6339 15.08846010 26615,6917.862,95.437,540.211,539.243,0.0
54056.0,STARLINK-5226,PAYLOAD,2023-04-13 14:19:48,15.08836141,7.21e-05,53.2174,67.6433,91.6704,268.4371,0.00042512,6.484e-05,0.0,0 STARLINK-5226,1 54056U 22136F   23103.59708610  .00006484  00000-0  42512-3 0  9998,2 54056  53.2174  67.6433 0000721  91.6704 268.4371 15.08836141 27131,6917.892,95.438,540.256,539.258,0.0
54056.0,STARLINK-5226,PAYLOAD,2023-04-14 07:49:02,15.08842805,8.24e-05,53.2192,64.3757,109.0892,251.0189,0.00034723,5.243e-05,0.0,0 STARLINK-5226,1 54056U 22136F   23104.32572818  .00005243  00000-0  34723-3 0  9996,2 54056  53.2192  64.3757 0000824 109.0892 251.0189 15.08842805 26767,6917.872,95.437,540.307,539.167,0.0
54056.0,STARLINK-5226,PAYLOAD,2023-04-15 04:29:03,15.08844283,9.51e-05,53.2185,60.5091,82.5843,277.5257,0.00018071,2.59e-05,0.0,0 STARLINK-5226,1 54056U 22136F   23105.18685000  .00002590  00000-0  18071-3 0  9999,2 54056  53.2185  60.5091 0000951  82.5843 277.5257 15.08844283 27379,6917.867,95.437,540.39,539.074,0.0
54056.0,STARLINK-5226,PAYLOAD,2023-04-15 20:22:55,15.08845441,8.99e-05,53.2182,57.5387,79.6351,280.4743,0.00027524,4.096e-05,0.0,0 STARLINK-5226,1 54056U 22136F   23105.84925043  .00004096  00000-0  27524-3 0  9992,2 54056  53.2182  57.5387 0000899  79.6351 280.4743 15.08845441 26999,6917.864,95.437,540.351,539.107,0.0
54056.0,STARLINK-5226,PAYLOAD,2023-04-16 04:19:50,15.0885077,9.79e-05,53.2185,56.0481,122.6617,237.447,0.00026501,3.934e-05,0.0,0 STARLINK-5226,1 54056U 22136F   23106.18044513  .00003934  00000-0  26501-3 0  9998,2 54056  53.2185  56.0481 0000979 122.6617 237.4470 15.08850770 27041,6917.847,95.437,540.39,539.035,0.0
54056.0,STARLINK-5226,PAYLOAD,2023-04-17 02:35:15,15.08839507,9.26e-05,53.2184,51.8867,99.048,261.0616,7.7706e-05,9.49e-06,0.0,0 STARLINK-5226,1 54056U 22136F   23107.10781410  .00000949  00000-0  77706-4 0  9992,2 54056  53.2184  51.8867 0000926  99.0480 261.0616 15.08839507 27666,6917.882,95.438,540.387,539.106,0.0
